ONEWEB-0220             
1 48232U 21031Y   24040.18344151 -.00000063  00000+0 -20540-3 0  9997
2 48232  87.8937 100.6977 0001484 101.6324 258.4972 13.14505398135552
ONEWEB-0165             
1 48233U 21031Z   24039.67917306  .00000128  00000+0  31049-3 0  9994
2 48233  87.8943 100.8067 0001738  97.0490 263.0838 13.14505347135441
ONEWEB-0199             
1 48234U 21031AA  24039.66329844 -.00000126  00000+0 -37469-3 0  9990
2 48234  87.8942 100.7811 0001753  99.6527 260.4800 13.14503576135344
ONEWEB-0203             
1 48235U 21031AB  24039.72993496 -.00000194  00000+0 -55856-3 0  9993
2 48235  87.8943 100.7686 0002342  92.8331 267.3066 13.14502630135361
ONEWEB-0197             
1 48236U 21031AC  24039.70532844  .00000128  00000+0  31118-3 0  9998
2 48236  87.8943 100.7814 0001881 113.3733 246.7595 13.14501327135277
ONEWEB-0194             
1 48237U 21031AD  24040.14063353  .00000196  00000+0  49366-3 0  9992
2 48237  87.8942 100.6862 0002189  98.0682 262.0696 13.14502664135507
ONEWEB-0193             
1 48238U 21031AE  24039.69977829  .00000249  00000+0  63589-3 0  9995
2 48238  87.8943 100.7828 0001867  94.6240 265.5103 13.14501126135396
ONEWEB-0191             
1 48239U 21031AF  24039.71088419  .00000029  00000+0  44023-4 0  9996
2 48239  87.8941 100.7680 0001909  97.6310 262.5037 13.14501520135255
